2 54058  53.2149 221.5175 0001600  52.3920 203.5701 15.08859982    13
STARLINK-5173           
1 54059C 22136J   22354.10118056 -.00016137  00000-0 -10117-2 0  3542
2 54059  53.2149 221.5873 0001330  89.0145 116.6986 15.08864020    13
STARLINK-5169           
1 54060C 22136K   22354.08659722 -.00028666  00000-0 -20355-3 0  3547
2 54060  53.2133 207.8261 0002462  14.7385 203.5561 15.73257554    19
STARLINK-5209           
1 54061C 22136L   22354.06923611 -.00102446  00000-0 -72850-3 0  3543
2 54061  53.2148 206.4420 0001340 100.4953  23.8068 15.73300599    19
STARLINK-5170           
1 54062C 22136M   22354.10048611 -.00003956  00000-0 -24807-3 0  3542
2 54062  53.2162 221.5141 0001630 124.2708 117.7340 15.08844849    13
STARLINK-5225           
1 54063C 22136N   22354.10395833 -.00015809  00000-0 -99114-3 0  3547
2 54063  53.2160 221.4556 0001966  46.2844 234.6167 15.08861519    16
STARLINK-5172           
1 54064C 22136P   22354.07965278  .00021603  00000-0  15358-3 0  3545
2 54064  53.2153 208.6033 0001284  41.5898 135.9526 15.73184038    14
STARLINK-5187           
1 54065C 22136Q   22354.10256944 -.00007431  00000-0 -46593-3 0  3543
2 54065  53.2162 221.3864 0001879  42.9399 270.4809 15.08846566    18
STARLINK-5151           
1 54066C 22136R   22354.10465278 -.00017662  00000-0 -11074-2 0  3548
2 54066  53.2162 221.4161 0001681  54.5521 250.1454 15.08861436    11
STARLINK-5174           
1 54067C 22136S   22354.10534722 -.00007902  00000-0 -49539-3 0  3544
2 54067  53.2154 221.2959 0001947  36.3883 332.1658 15.08853567    13
STARLINK-5222           
1 54068C 22136T   22354.10534722 -.00017311  00000-0 -10853-2 0  3546
2 54068  53.2155 221.3321 0001853  46.7834 301.7305 15.08863808    16
STARLINK-5223           
1 54069C 22136U   22354.10326389 -.00012105  00000-0 -75888-3 0  3541
2 54069  53.2144 221.1817 0001970  45.9931  11.2935 15.08858031    16
STARLINK-5181           
1 54070C 22136V   22354.09840278 -.00005088  00000-0 -31902-3 0  3540
2 54070  53.2151 221.2972 0001761  59.8890 285.7576 15.08847709    14
STARLINK-5168           
1 54071C 22136W   22354.10118056 -.00013219  00000-0 -82868-3 0  3547
2 54071  53.2141 221.2289 0001902  49.4814 336.4715 15.08861901    12
STARLINK-5144           
1 54072C 22136X   22354.10256944 -.00015633  00000-0 -98010-3 0  3545
2 54072  53.2161 221.2727 0001856  48.4553 325.0279 15.08860832    10
STARLINK-5146           
1 54073C 22136Y   22354.10673611 -.00006244  00000-0 -39147-3 0  3544
2 54073  53.2151 216.7991 0001248  82.3433  35.7091 15.08851739    14
STARLINK-5192           
1 54074C 22136Z   22354.10187500 -.00013439  00000-0 -84243-3 0  3543
2 54074  53.2140 221.1501 0001877  51.4231  18.3503 15.08863679    12
STARLINK-5212           
1 54075C 22136AA  22354.09979167 -.00016078  00000-0 -10080-2 0  3549
2 54075  53.2145 216.5549 0001724  47.5512 172.9534 15.08863534    18
STARLINK-5201           
1 54076C 22136AB  22354.10604167 -.00010256  00000-0 -64306-3 0  3540
2 54076  53.2134 221.0911 0001879  46.9186  65.5441 15.08853226    13
STARLINK-5171           
1 54077C 22136AC  22354.08034722 -.00999041  00000-0 -82458-2 0  3547
2 54077  53.2164 208.6466 0006059 269.5634 250.0701 15.70641053    11
STARLINK-5138           
1 54078C 22136AD  22354.07895833 -.00974102  00000-0 -80549-2 0  3545
2 54078  53.2163 208.6548 0001625  37.0742 114.0616 15.70595780    13
STARLINK-5175           
1 54079C 22136AE  22354.07409722 -.01229486  00000-0 -51519-1 0  3547
2 54079  53.2163 212.2202 0001381  81.9508  76.9241 15.24235621    13
STARLINK-5160           
1 54080C 22136AF  22354.09770833 -.00016437  00000-0 -10304-2 0  3542
2 54080  53.2144 217.0368 0001789  60.1437 268.6989 15.08865046    13
STARLINK-5165           
1 54081C 22136AG  22354.06993056 -.01233425  00000-0 -50752-1 0  3543
2 54081  53.2163 212.1872 0001404  92.4880  69.6331 15.24852400    13
STARLINK-5210           
1 54082C 22136AH  22354.07062500 -.01247097  00000-0 -51772-1 0  3549
2 54082  53.2163 212.2096 0001374  92.7400  60.1784 15.24567655    13
STARLINK-5178           
1 54083C 22136AJ  22354.06506944 -.01223569  00000-0 -49497-1 0  3543
2 54083  53.2163 212.1572 0001358  82.3271  79.6288 15.25414453    17
STARLINK-5183           
1 54084C 22136AK  22354.06784722 -.01231828  00000-0 -50358-1 0  3541
2 54084  53.2163 212.1772 0001461  67.3640  93.0515 15.25069206    13
STARLINK-5166           
1 54085C 22136AL  22354.06159722 -.01233592  00000-0 -49440-1 0  3548
2 54085  53.2164 212.1481 0001371 100.3146  55.1664 15.25736326    19
STARLINK-5211           
1 54086C 22136AM  22354.08868056 -.00028871  00000-0 -20494-3 0  3549
2 54086  53.2126 208.5923 0003465   7.1752 209.1496 15.73261076    13
STARLINK-5184           
1 54087C 22136AN  22354.07131944 -.01230306  00000-0 -48903-1 0  3540
2 54087  53.2164 212.0788 0001338  87.2916 134.1214 15.26008344    13
STARLINK-5153           
1 54088C 22136AP  22354.06437500 -.01244752  00000-0 -50795-1 0  3549
2 54088  53.2163 212.1853 0001634  46.9529  98.4321 15.25142318    18
STARLINK-5143           
1 54089C 22136AQ  22354.06506944 -.01237035  00000-0 -47835-1 0  3546
2 54089  53.2164 212.0346 0001345  78.9432 144.7846 15.26932606    18
STARLINK-5177           
1 54090C 22136AR  22354.06645833 -.01228244  00000-0 -47932-1 0  3549
2 54090  53.2165 212.0519 0001384  73.3827 145.8600 15.26619364    16
STARLINK-5221           
1 54091C 22136AS  22354.09562500 -.01232194  00000-0 -46592-1 0  3542
2 54091  53.2166 211.8293 0001213  78.6249 345.7899 15.27670809    14
STARLINK-5190           
1 54092C 22136AT  22354.06923611 -.01236021  00000-0 -48679-1 0  3545
2 54092  53.2165 212.0636 0001359  98.8525 123.4319 15.26322284    18
STARLINK-5213           
1 54093C 22136AU  22354.09493056 -.01239987  00000-0 -46801-1 0  3543
2 54093  53.2165 211.8249 0001225  87.5402 336.6776 15.27739134    19
STARLINK-5219           
1 54094C 22136AV  22354.06229167 -.01232695  00000-0 -47225-1 0  3541
2 54094  53.2166 212.0239 0001357  98.1219 122.1897 15.27237549    18
STARLINK-5193           
1 54095C 22136AW  22354.09770833 -.01236891  00000-0 -44691-1 0  3542
2 54095  53.2166 211.6546 0001900  38.1149 122.0606 15.29170803    13
STARLINK-5188           
1 54096C 22136AX  22354.06020833 -.01234366  00000-0 -46856-1 0  3548
2 54096  53.2166 212.0099 0001368  73.6841 147.0092 15.27544035    19
STARLINK-5197           
1 54097C 22136AY  22354.06020833  .00022881  00000-0  16264-3 0  3545
2 54097  53.2152 208.6768 0001899  23.6173  58.6990 15.73183743    11
STARLINK-5217           
1 54098C 22136AZ  22354.08729167 -.01218848  00000-0 -44747-1 0  3542
2 54098  53.2140 211.7951 0001189  77.7700 338.9198 15.28630053    11
STARLINK-5198           
1 54099C 22136BA  22354.10187500 -.01267050  00000-0 -45711-1 0  3546
2 54099  53.2167 211.6805 0001381  70.4113  88.8932 15.29252274    13
STARLINK-5185           
1 54100C 22136BB  22354.09701389 -.01222472  00000-0 -45734-1 0  3548
2 54100  53.2138 211.7955 0001285  82.6138   4.7076 15.28012837    10
STARLINK-5204           
1 54101C 22136BC  22354.08659722 -.00022151  00000-0 -15723-3 0  3549
2 54101  53.2121 208.5850 0003427   9.9484 205.2879 15.73255464    11
STARLINK-5179           
1 54102C 22136BD  22354.10395833 -.01247318  00000-0 -45430-1 0  3544
2 54102  53.2166 211.6917 0001371  67.4794  92.2845 15.28919714    11
STARLINK-5200           
1 54103C 22136BE  22354.07548611 -.00058428  00000-0 -41487-3 0  3546
2 54103  53.2140 208.6309 0003165   8.3863 144.5180 15.73284873    13
STARLINK-5203           
1 54104C 22136BF  22354.07479167 -.00011087  00000-0 -78652-4 0  3541
2 54104  53.2129 208.6377 0003089  13.1254 136.4610 15.73258571    13
STARLINK-5290           
1 54157C 22141A   22354.08243056 -.00018778  00000-0 -11771-2 0  3543
2 54157  53.2167 251.6837 0001725  51.8368 166.9741 15.08869790    14
STARLINK-5297           
1 54158C 22141B   22354.07895833 -.00010825  00000-0 -67857-3 0  3541
2 54158  53.2158 251.7768 0001655  53.5732 106.3351 15.08863020    10
STARLINK-5294           
1 54159C 22141C   22354.07409722  .00006337  00000-0  39765-3 0  3548
2 54159  53.2175 251.4625 0001259 102.8213 205.6651 15.08809080    13
STARLINK-5233           
1 54160C 22141D   22354.10465278 -.00033168  00000-0 -23567-3 0  3549
2 54160  53.2152 241.2864 0003128   9.6734 105.7367 15.73244406    12
STARLINK-5269           
1 54161C 22141E   22354.07340278 -.00016238  00000-0 -10181-2 0  3544
2 54161  53.2160 251.7623 0001843  47.9683 101.7880 15.08858713    17
STARLINK-5273           
1 54162C 22141F   22354.08381944 -.00023546  00000-0 -14763-2 0  3541
2 54162  53.2175 251.6385 0001763  50.0619 196.3691 15.08865768    11
STARLINK-5161           
1 54163C 22141G   22354.08937500 -.01246586  00000-0 -30858-1 0  3541
2 54163  53.2167 243.2500 0001262  76.9738  87.7815 15.41113233    13
STARLINK-5278           
1 54164C 22141H   22354.08590278 -.01254590  00000-0 -31364-1 0  3546
2 54164  53.2168 243.2772 0001191  82.6822  57.4170 15.40821843    15
STARLINK-5279           
1 54165C 22141J   22354.08243056 -.00021478  00000-0 -13468-2 0  3548
2 54165  53.2190 251.6075 0001629  57.3110 201.5914 15.08861403    13
STARLINK-5280           
1 54166C 22141K   22354.08173611 -.01226482  00000-0 -30040-1 0  3545
2 54166  53.2167 243.2757 0001327  83.0554  44.5524 15.41414447    16
STARLINK-5243           
1 54167C 22141L   22354.09562500  .00006303  00000-0  39559-3 0  3547
2 54167  53.2171 251.3205 0000837  81.5190   4.0388 15.08798586    15
STARLINK-5245           
1 54168C 22141M   22354.07548611 -.01218893  00000-0 -29557-1 0  3540
2 54168  53.2139 243.2981 0001229  78.2961  20.7560 15.41708911    13
STARLINK-5282           
1 54169C 22141N   22354.06020833 -.01231206  00000-0 -30553-1 0  3542
2 54169  53.2169 243.1740 0001318  62.1737  49.8137 15.41022506    12
